STARLINK-2695
1 18644C 21044G   21326.15833221  .00001006  00000-0  67386-4 0  3261
2 18644  53.0560 323.0243 0001546  57.3048  66.6561 15.06393718    11
